{
    "links": {
        "self": "http://www.neowsapp.com/rest/v1/neo/3698559?api_key=iIulBulltgU6a56xZRHN4H3l9WmuAYTsLGpBGhQ2"
    },
    "id": "3698559",
    "neo_reference_id": "3698559",
    "name": "(2014 HG199)",
    "designation": "2014 HG199",
    "nasa_jpl_url": "http://ssd.jpl.nasa.gov/sbdb.cgi?sstr=3698559",
    "absolute_magnitude_h": 21.7,
    "estimated_diameter": {
        "kilometers": {
            "estimated_diameter_min": 0.1214940408,
            "estimated_diameter_max": 0.2716689341
        },
        "meters": {
            "estimated_diameter_min": 121.4940407996,
            "estimated_diameter_max": 271.6689340891
        },
        "miles": {
            "estimated_diameter_min": 0.0754928736,
            "estimated_diameter_max": 0.1688071972
        },
        "feet": {
            "estimated_diameter_min": 398.6025088171,
            "estimated_diameter_max": 891.3023057169
        }
    },
    "is_potentially_hazardous_asteroid": false,
    "close_approach_data": [
        {
            "close_approach_date": "2014-06-16",
            "close_approach_date_full": "2014-Jun-16 11:27",
            "epoch_date_close_approach": 1402918020000,
            "relative_velocity": {
                "kilometers_per_second": "4.2169760149",
                "kilometers_per_hour": "15181.1136536664",
                "miles_per_hour": "9432.9536477462"
            },
            "miss_distance": {
                "astronomical": "0.2959097024",
                "lunar": "115.1088742336",
                "kilometers": "44267461.191373888",
                "miles": "27506524.8898121344"
            },
            "orbiting_body": "Earth"
        }
    ],
    "orbital_data": {
        "orbit_id": "3",
        "orbit_determination_date": "2017-04-06 08:40:43",
        "first_observation_date": "2014-04-28",
        "last_observation_date": "2014-05-05",
        "data_arc_in_days": 7,
        "observations_used": 24,
        "orbit_uncertainty": "9",
        "minimum_orbit_intersection": ".279301",
        "jupiter_tisserand_invariant": "3.691",
        "epoch_osculation": "2456778.5",
        "eccentricity": ".4126478024816",
        "semi_major_axis": "2.014482942577115",
        "inclination": "12.07469900054964",
        "ascending_node_longitude": "22.3657218716232",
        "orbital_period": "1044.344583152737",
        "perihelion_distance": "1.183210983186001",
        "perihelion_argument": "262.8913662749736",
        "aphelion_distance": "2.845754901968228",
        "perihelion_time": "2456852.247423613767",
        "mean_anomaly": "334.5782446433456",
        "mean_motion": ".3447138097975366",
        "equinox": "J2000",
        "orbit_class": {
            "orbit_class_type": "AMO",
            "orbit_class_description": "Near-Earth asteroid orbits similar to that of 1221 Amor",
            "orbit_class_range": "1.017 AU < q (perihelion) < 1.3 AU"
        }
    },
    "is_sentry_object": false
}